[
  {
    "OBJECT_NAME": "STARLINK-35244",
    "OBJECT_ID": "25221G",
    "EPOCH": "2025-11-11T04:13:32.943072",
    "MEAN_MOTION": 15.30210244,
    "ECCENTRICITY": 0.000127,
    "INCLINATION": 53.1618,
    "RA_OF_ASC_NODE": 281.3379,
    "ARG_OF_PERICENTER": 76.1949,
    "MEAN_ANOMALY": 283.9193,
    "EPHEMERIS_TYPE": 0,
    "CLASSIFICATION_TYPE": "U",
    "NORAD_CAT_ID": 65829,
    "ELEMENT_SET_NO": 999,
    "REV_AT_EPOCH": 786,
    "BSTAR": 0.0010444,
    "MEAN_MOTION_DOT": 0.00030712,
    "MEAN_MOTION_DDOT": 0.0,
    "TLE_LINE1": "1 65829U 25221G   25315.17607573  .00030712  00000+0  10444-2 0  9991",
    "TLE_LINE2": "2 65829  53.1618 281.3379 0001270  76.1949 283.9193 15.30210244  7863",
    "COMMENT": "Grouped by shell and plane from TLE"
  }
]